IRIDIUM 33 DEB          
1 35488U 97051QJ  26115.79275331  .00010395  00000+0  11734-2 0  9997
2 35488  86.3243 238.8851 0023140 283.1662  76.6980 14.86252651902556
IRIDIUM 33 DEB          
1 35616U 97051QN  26111.18734097  .00010829  00000+0  12410-2 0  9992
2 35616  86.3497 286.4680 0010646  87.8457 272.3986 14.85791192894948
IRIDIUM 33 DEB          
1 35618U 97051QQ  26114.22865173  .00001209  00000+0  28755-3 0  9994
2 35618  86.3344 295.5416 0026280 294.7776  65.0696 14.52870281673179
IRIDIUM 33 DEB          
1 35620U 97051QS  26115.39020522  .00006305  00000+0  17365-2 0  9993
2 35620  86.3908 160.9559 0136970 176.1348 184.0946 14.41324748618895
IRIDIUM 33 DEB          
1 35622U 97051QU  26115.00201056  .00043391  00000+0  20984-2 0  9993
2 35622  86.1915 197.0930 0010009 141.9066  33.5919 15.18380153893731
IRIDIUM 33 DEB          
1 35628U 97051RA  26115.78678257  .00005952  00000+0  99230-3 0  9997
2 35628  86.3539 309.1862 0009688 220.8584 139.1906 14.69821534884146
IRIDIUM 33 DEB          
1 35631U 97051RD  26115.03894211  .00000645  00000+0  16884-3 0  9997
2 35631  86.3654 323.5859 0018370  42.0713 111.5742 14.47725470891250
IRIDIUM 33 DEB          
1 35680U 97051RJ  26115.33377597  .00003951  00000+0  15712-2 0  9998
2 35680  86.1034 322.2937 0146294 213.4714 324.9896 14.22804913625998
IRIDIUM 33 DEB          
1 35744U 97051RX  26115.37399472  .00006786  00000+0  10492-2 0  9998
2 35744  86.3250 264.9309 0022500  98.3382 262.0387 14.72983500892976
IRIDIUM 33 DEB          
1 35797U 97051SF  26111.70515261  .00011179  00000+0  12475-2 0  9990
2 35797  86.3315 270.0322 0012263  69.8886 290.3658 14.86863650892698
IRIDIUM 33 DEB          
1 35806U 97051SQ  26110.32766267  .00002653  00000+0  56203-3 0  9997
2 35806  86.3423 323.9574 0013791   4.5460 355.5872 14.58851578881984
IRIDIUM 33 DEB          
1 35809U 97051ST  26115.15608699  .00010658  00000+0  14428-2 0  9996
2 35809  86.3238 274.4110 0013438 139.3012 220.9215 14.78825146887778
IRIDIUM 33 DEB          
1 35846U 97051SW  26114.65910596  .00001117  00000+0  32228-3 0  9992
2 35846  86.3788   2.1031 0020074  93.5701 266.7796 14.43721160732467
IRIDIUM 33 DEB          
1 35848U 97051SY  26115.82701073  .00010037  00000+0  12548-2 0  9995
2 35848  86.3871 315.6489 0009898  95.4967 264.7385 14.82196896686743
IRIDIUM 33 DEB          
1 35850U 97051TA  26114.19870447  .00008658  00000+0  10800-2 0  9994
2 35850  86.3443 283.7962 0011168  99.1870 261.0617 14.82268518733178
IRIDIUM 33 DEB          
1 35915U 97051TY  26112.73377580  .00008497  00000+0  99924-3 0  9990
2 35915  86.3392 282.8815 0012506 101.5638 258.6990 14.84694584100270
IRIDIUM 33 DEB          
1 35918U 97051UB  26113.02063000  .00002406  00000+0  58233-3 0  9997
2 35918  86.4045  19.4046 0028511  89.8196 284.6167 14.52423262871121
IRIDIUM 33 DEB          
1 35929U 97051UN  26113.09188747  .00030442  00000+0  16954-2 0  9996
2 35929  86.3437 249.8913 0013556 253.0784 106.8970 15.13410606897592
IRIDIUM 33 DEB          
1 36011U 97051US  26114.38430878  .00000913  00000+0  27295-3 0  9998
2 36011  86.3414 338.4586 0019743 139.0347 343.6681 14.41796545664516
IRIDIUM 33 DEB          
1 36012U 97051UT  26115.80388167  .00004488  00000+0  16165-2 0  9994
2 36012  86.4382 253.3632 0219579 193.9660 165.5397 14.20967537673877
IRIDIUM 33 DEB          
1 36028U 97051VK  26115.60807911  .00023792  00000+0  17713-2 0  9991
2 36028  86.3184 243.3287 0014318 274.3878  85.5720 15.02744787891309
IRIDIUM 33 DEB          
1 36080U 97051VM  26111.82142268  .00001132  00000+0  30381-3 0  9997
2 36080  86.3162 311.3028 0019377  90.4579 269.8844 14.47196504492955
IRIDIUM 33 DEB          
1 36083U 97051VQ  26115.37065031  .00001313  00000+0  37860-3 0  9996
2 36083  86.3443 336.6253 0027447 140.5610 219.7596 14.43763083873779
IRIDIUM 33 DEB          
1 36390U 97051VU  26107.63836251  .00004176  00000+0  60593-3 0  9996
2 36390  86.2949 241.5792 0030094  93.5912 266.8750 14.75483411681171
IRIDIUM 33 DEB          
1 36483U 97051VZ  26103.96176541  .00000905  00000+0  24684-3 0  9997
2 36483  86.3839   0.1649 0011408  83.0785 277.1715 14.46316988669122
IRIDIUM 33 DEB          
1 36490U 97051WG  26115.81865737  .00009685  00000+0  12842-2 0  9990
2 36490  86.3612 309.8051 0001914   1.7916 358.3311 14.79763901884657
IRIDIUM 33 DEB          
1 36493U 97051WK  26114.79737013  .00004339  00000+0  76667-3 0  9991
2 36493  86.3545 312.4764 0008118 250.9491 109.0844 14.67213826764680
IRIDIUM 33 DEB          
1 36497U 97051WP  26115.47110709  .00005733  00000+0  10368-2 0  9992
2 36497  86.1575 191.4063 0045525  28.0149 332.3499 14.65551792676098
IRIDIUM 33 DEB          
1 37548U 97051XH  26114.35938007  .00001903  00000+0  46025-3 0  9990
2 37548  86.3532 345.6205 0026470 105.7034 254.7095 14.52391145674565
IRIDIUM 33 DEB          
1 37550U 97051XK  26115.31704403  .00005907  00000+0  99487-3 0  9999
2 37550  86.3759 324.5804 0004495  46.6862 313.4728 14.69399580882932
IRIDIUM 33 DEB          
1 37562U 97051XX  26114.39964414  .00002826  00000+0  60928-3 0  9994
2 37562  86.3759 345.7054 0025241  23.2502 100.6173 14.57914896882605
IRIDIUM 33 DEB          
1 37565U 97051YA  26099.33400274  .00001712  00000+0  41706-3 0  9998
2 37565  86.3473 318.3481 0014606  52.1997 308.0529 14.52140920675437
IRIDIUM 33 DEB          
1 38017U 97051YD  26114.95771152  .00005664  00000+0  13172-2 0  9998
2 38017  86.3373 108.0925 0087010  24.4788 336.0510 14.52435147633348
IRIDIUM 33 DEB          
1 38022U 97051YJ  26111.83157768  .00002085  00000+0  61839-3 0  9997
2 38022  86.2662 319.4368 0043819 341.5723  18.3887 14.42362653710684
IRIDIUM 33 DEB          
1 38028U 97051YQ  26115.26848562  .00000672  00000+0  17970-3 0  9990
2 38028  86.3211 302.2159 0029254  42.6223 317.7242 14.46617659674256
IRIDIUM 33 DEB          
1 38228U 97051ZC  26115.41119252  .00000525  00000+0  20078-3 0  9996
2 38228  86.2970 351.6484 0065523 119.2958  60.0617 14.27525729866884
IRIDIUM 33 DEB          
1 38241U 97051ZR  26115.23106215  .00002696  00000+0  61126-3 0  9996
2 38241  86.3177 291.6624 0002781  11.0460 349.0809 14.55789284621423
IRIDIUM 33 DEB          
1 38474U 97051AAB 26115.80861147  .00001256  00000+0  30884-3 0  9997
2 38474  86.3405 311.6248 0025450   2.9253 357.2096 14.51372713672625
IRIDIUM 33 DEB          
1 39777U 97051AAJ 26115.40764932  .00014814  00000+0  29983-2 0  9995
2 39777  85.9570 109.9732 0061674  94.7175 266.1082 14.60004832621335
IRIDIUM 33 DEB          
1 39778U 97051AAK 26115.61730807  .00002841  00000+0  64891-3 0  9998
2 39778  86.3798 345.0723 0005393 310.2779  49.7956 14.55443484626398
IRIDIUM 33 DEB          
1 39781U 97051AAN 26115.48471361  .00013815  00000+0  51087-2 0  9999
2 39781  86.3746 202.7651 0175800 202.3236 172.8803 14.24075367100083
IRIDIUM 33 DEB          
1 40996U 97051ABJ 26110.30617049  .00020553  00000+0  13394-2 0  9996
2 40996  86.3437 300.7606 0004303 299.3110 181.5769 15.07801729644188
IRIDIUM 33 DEB          
1 40998U 97051ABL 26114.44129693  .00000993  00000+0  27539-3 0  9993
2 40998  86.3864 356.9634 0008241  14.7240 107.0747 14.45613331 85983
IRIDIUM 33 DEB          
1 46435U 97051ABN 26115.81082395  .00008173  00000+0  21222-2 0  9994
2 46435  86.2788 135.8996 0197762 193.5928 345.1445 14.38526762 98404
IRIDIUM 33 DEB          
1 46734U 97051ABR 26109.30446626  .00001915  00000+0  56413-3 0  9992
2 46734  86.2589 306.8288 0037670 271.8827 269.0255 14.42791376648491
IRIDIUM 33 DEB          
1 46965U 97051ABX 26115.71630353  .00003069  00000+0  61601-3 0  9999
2 46965  86.3313 281.2191 0017580 225.3756 150.5187 14.61321831642246
IRIDIUM 33 DEB          
1 46971U 97051ACD 26112.18352144  .00026083  00000+0  17287-2 0  9994
2 46971  86.3180 271.1995 0006949 192.0494 295.0570 15.07152610661892
IRIDIUM 33 DEB          
1 46972U 97051ACE 26101.43150669  .00001303  00000+0  32218-3 0  9999
2 46972  86.3910 347.8745 0011865  68.0639  58.2244 14.51299210633087
IRIDIUM 33 DEB          
1 46974U 97051ACG 26115.06563964  .00008541  00000+0  22033-2 0  9995
2 46974  86.2984  46.8927 0091880 101.7128 259.4402 14.47388047594359
